{"type": "FeatureCollection", "features": [ {"type": "Feature", "properties": {"norad_id": 66663, "name": "KSLV-II R/B", "group": "last-30-days", "lat": -9.871854645329321, "lon": 87.35273602183302, "alt_km": 608.1072101522086, "timestamp": "2025-12-07T07:31:35.087562+00:00", "meta": {"OBJECT_NAME": "KSLV-II R/B", "OBJECT_ID": "2025-274P", "EPOCH": "2025-12-06T19:27:04.446432", "MEAN_MOTION": 14.97226496, "ECCENTRICITY": 0.00484111, "INCLINATION": 97.7412, "RA_OF_ASC_NODE": 268.2109, "ARG_OF_PERICENTER": 339.2416, "MEAN_ANOMALY": 20.6839, "EPHEMERIS_TYPE": 0, "CLASSIFICATION_TYPE": "U", "NORAD_CAT_ID": 66663, "ELEMENT_SET_NO": 999, "REV_AT_EPOCH": 152, "BSTAR": 0.00053388811, "MEAN_MOTION_DOT": 6.269e-05, "MEAN_MOTION_DDOT": 0}, "tle": {"line1": "1 66663U 25274P   25340.81046813  .00006269  00000+0  53389-3 0  9995", "line2": "2 66663  97.7412 268.2109 0048411 339.2416  20.6839 14.97226496  1529"}}, "geometry": {"type": "Point", "coordinates": [87.35273602183302, -9.871854645329321]}}, {"type": "Feature", "properties": {"norad_id": 66664, "name": "SOYUZ-MS 28", "group": "last-30-days", "lat": -14.436721187762389, "lon": 157.57486415651445, "alt_km": 422.3409039083481, "timestamp": "2025-12-07T07:31:35.087573+00:00", "meta": {"OBJECT_NAME": "SOYUZ-MS 28", "OBJECT_ID": "2025-275A", "EPOCH": "2025-12-06T20:46:13.238400", "MEAN_MOTION": 15.49374779, "ECCENTRICITY": 0.00034973, "INCLINATION": 51.6304, "RA_OF_ASC_NODE": 171.5636, "ARG_OF_PERICENTER": 213.1314, "MEAN_ANOMALY": 146.9456, "EPHEMERIS_TYPE": 0, "CLASSIFICATION_TYPE": "U", "NORAD_CAT_ID": 66664, "ELEMENT_SET_NO": 999, "REV_AT_EPOCH": 128, "BSTAR": 0.00025393652, "MEAN_MOTION_DOT": 0.0001375, "MEAN_MOTION_DDOT": 0}, "tle": {"line1": "1 66664U 25275A   25340.86543100  .00013750  00000+0  25394-3 0  9991", "line2": "2 66664  51.6304 171.5636 0003497 213.1314 146.9456 15.49374779  1288"}}, "geometry": {"type": "Point", "coordinates": [157.57486415651445, -14.436721187762389]}}, {"type": "Feature", "properties": {"norad_id": 66820, "name": "KOMPSAT-7", "group": "last-30-days", "lat": -68.82691107914113, "lon": 87.0156093625681, "alt_km": 572.7277154480344, "timestamp": "2025-12-07T07:31:35.087583+00:00", "meta": {"OBJECT_NAME": "KOMPSAT-7", "OBJECT_ID": "2025-279A", "EPOCH": "2025-12-06T20:47:47.040288", "MEAN_MOTION": 14.98355753, "ECCENTRICITY": 0.00094981, "INCLINATION": 97.6393, "RA_OF_ASC_NODE": 286.8524, "ARG_OF_PERICENTER": 242.4762, "MEAN_ANOMALY": 117.5496, "EPHEMERIS_TYPE": 0, "CLASSIFICATION_TYPE": "U", "NORAD_CAT_ID": 66820, "ELEMENT_SET_NO": 999, "REV_AT_EPOCH": 77, "BSTAR": 0.00039334363, "MEAN_MOTION_DOT": 4.634e-05, "MEAN_MOTION_DDOT": 0}, "tle": {"line1": "1 66820U 25279A   25340.86651667  .00004634  00000+0  39334-3 0  9997", "line2": "2 66820  97.6393 286.8524 0009498 242.4762 117.5496 14.98355753   770"}}, "geometry": {"type": "Point", "coordinates": [87.0156093625681, -68.82691107914113]}}, {"type": "Feature", "properties": {"norad_id": 66877, "name": "ZQ-3 R/B", "group": "last-30-days", "lat": 20.795743082809356, "lon": 92.54799564643298, "alt_km": 1331.4582940874516, "timestamp": "2025-12-07T07:31:35.087595+00:00", "meta": {"OBJECT_NAME": "ZQ-3 R/B", "OBJECT_ID": "2025-282A", "EPOCH": "2025-12-06T23:05:26.334240", "MEAN_MOTION": 14.44698688, "ECCENTRICITY": 0.08406531, "INCLINATION": 56.9538, "RA_OF_ASC_NODE": 79.5521, "ARG_OF_PERICENTER": 210.066, "MEAN_ANOMALY": 144.9465, "EPHEMERIS_TYPE": 0, "CLASSIFICATION_TYPE": "U", "NORAD_CAT_ID": 66877, "ELEMENT_SET_NO": 999, "REV_AT_EPOCH": 55, "BSTAR": 0.00024476681, "MEAN_MOTION_DOT": 0.01121977, "MEAN_MOTION_DDOT": 7.252501e-06}, "tle": {"line1": "1 66877U 25282A   25340.96211035  .01121977  72525-5  24477-3 0  9995", "line2": "2 66877  56.9538  79.5521 0840653 210.0660 144.9465 14.44698688   553"}}, "geometry": {"type": "Point", "coordinates": [92.54799564643298, 20.795743082809356]}}, {"type": "Feature", "properties": {"norad_id": 66906, "name": "1998-067XS", "group": "last-30-days", "lat": -5.128732307678974, "lon": 165.24146901520615, "alt_km": 420.4091616958103, "timestamp": "2025-12-07T07:31:35.087608+00:00", "meta": {"OBJECT_NAME": "1998-067XS", "OBJECT_ID": "1998-067XS", "EPOCH": "2025-12-06T22:16:16.867200", "MEAN_MOTION": 15.50144102, "ECCENTRICITY": 0.00041468, "INCLINATION": 51.6299, "RA_OF_ASC_NODE": 171.2315, "ARG_OF_PERICENTER": 177.6061, "MEAN_ANOMALY": 182.4948, "EPHEMERIS_TYPE": 0, "CLASSIFICATION_TYPE": "U", "NORAD_CAT_ID": 66906, "ELEMENT_SET_NO": 999, "REV_AT_EPOCH": 71, "BSTAR": 0.00061899955, "MEAN_MOTION_DOT": 0.00035216, "MEAN_MOTION_DDOT": 0}, "tle": {"line1": "1 66906U 98067XS  25340.92797300  .00035216  00000+0  61900-3 0  9993", "line2": "2 66906  51.6299 171.2315 0004146 177.6061 182.4948 15.50144102   711"}}, "geometry": {"type": "Point", "coordinates": [165.24146901520615, -5.128732307678974]}}, {"type": "Feature", "properties": {"norad_id": 66907, "name": "1998-067XT", "group": "last-30-days", "lat": -2.6254644677321135, "lon": 167.2306921824067, "alt_km": 419.51565462617145, "timestamp": "2025-12-07T07:31:35.087620+00:00", "meta": {"OBJECT_NAME": "1998-067XT", "OBJECT_ID": "1998-067XT", "EPOCH": "2025-12-06T22:15:35.290656", "MEAN_MOTION": 15.50498848, "ECCENTRICITY": 0.00052114, "INCLINATION": 51.6299, "RA_OF_ASC_NODE": 171.2284, "ARG_OF_PERICENTER": 194.7186, "MEAN_ANOMALY": 165.3652, "EPHEMERIS_TYPE": 0, "CLASSIFICATION_TYPE": "U", "NORAD_CAT_ID": 66907, "ELEMENT_SET_NO": 999, "REV_AT_EPOCH": 71, "BSTAR": 0.001226899, "MEAN_MOTION_DOT": 0.00071486, "MEAN_MOTION_DDOT": 0}, "tle": {"line1": "1 66907U 98067XT  25340.92749179  .00071486  00000+0  12269-2 0  9997", "line2": "2 66907  51.6299 171.2284 0005211 194.7186 165.3652 15.50498848   710"}}, "geometry": {"type": "Point", "coordinates": [167.2306921824067, -2.6254644677321135]}}, {"type": "Feature", "properties": {"norad_id": 66908, "name": "1998-067XU", "group": "last-30-days", "lat": -1.9896972289819543, "lon": 167.73346337234213, "alt_km": 419.44201602533667, "timestamp": "2025-12-07T07:31:35.087630+00:00", "meta": {"OBJECT_NAME": "1998-067XU", "OBJECT_ID": "1998-067XU", "EPOCH": "2025-12-06T22:15:23.816736", "MEAN_MOTION": 15.50551079, "ECCENTRICITY": 0.00054036, "INCLINATION": 51.6296, "RA_OF_ASC_NODE": 171.2272, "ARG_OF_PERICENTER": 194.2976, "MEAN_ANOMALY": 165.7861, "EPHEMERIS_TYPE": 0, "CLASSIFICATION_TYPE": "U", "NORAD_CAT_ID": 66908, "ELEMENT_SET_NO": 999, "REV_AT_EPOCH": 71, "BSTAR": 0.0011470427, "MEAN_MOTION_DOT": 0.00066891, "MEAN_MOTION_DDOT": 0}, "tle": {"line1": "1 66908U 98067XU  25340.92735899  .00066891  00000+0  11470-2 0  9999", "line2": "2 66908  51.6296 171.2272 0005403 194.2976 165.7861 15.50551079   712"}}, "geometry": {"type": "Point", "coordinates": [167.73346337234213, -1.9896972289819543]}}, {"type": "Feature", "properties": {"norad_id": 66909, "name": "1998-067XV", "group": "last-30-days", "lat": -1.7757468911404677, "lon": 167.90259267202802, "alt_km": 419.1487302756059, "timestamp": "2025-12-07T07:31:35.087640+00:00", "meta": {"OBJECT_NAME": "1998-067XV", "OBJECT_ID": "1998-067XV", "EPOCH": "2025-12-06T22:15:20.702880", "MEAN_MOTION": 15.50597561, "ECCENTRICITY": 0.000527, "INCLINATION": 51.6296, "RA_OF_ASC_NODE": 171.2269, "ARG_OF_PERICENTER": 195.203, "MEAN_ANOMALY": 164.8802, "EPHEMERIS_TYPE": 0, "CLASSIFICATION_TYPE": "U", "NORAD_CAT_ID": 66909, "ELEMENT_SET_NO": 999, "REV_AT_EPOCH": 71, "BSTAR": 0.0013781016, "MEAN_MOTION_DOT": 0.00080732, "MEAN_MOTION_DDOT": 0}, "tle": {"line1": "1 66909U 98067XV  25340.92732295  .00080732  00000+0  13781-2 0  9994", "line2": "2 66909  51.6296 171.2269 0005270 195.2030 164.8802 15.50597561   714"}}, "geometry": {"type": "Point", "coordinates": [167.90259267202802, -1.7757468911404677]}}, {"type": "Feature", "properties": {"norad_id": 66910, "name": "1998-067XW", "group": "last-30-days", "lat": 1.9863769997378293, "lon": 170.87485537625483, "alt_km": 418.7872757710029, "timestamp": "2025-12-07T07:31:35.087652+00:00", "meta": {"OBJECT_NAME": "1998-067XW", "OBJECT_ID": "1998-067XW", "EPOCH": "2025-12-06T22:14:11.406624", "MEAN_MOTION": 15.50834076, "ECCENTRICITY": 0.00061612, "INCLINATION": 51.6295, "RA_OF_ASC_NODE": 171.2216, "ARG_OF_PERICENTER": 180.8315, "MEAN_ANOMALY": 179.2665, "EPHEMERIS_TYPE": 0, "CLASSIFICATION_TYPE": "U", "NORAD_CAT_ID": 66910, "ELEMENT_SET_NO": 999, "REV_AT_EPOCH": 71, "BSTAR": 0.001191381, "MEAN_MOTION_DOT": 0.00070242, "MEAN_MOTION_DDOT": 0}, "tle": {"line1": "1 66910U 98067XW  25340.92652091  .00070242  00000+0  11914-2 0  9992", "line2": "2 66910  51.6295 171.2216 0006161 180.8315 179.2665 15.50834076   715"}}, "geometry": {"type": "Point", "coordinates": [170.87485537625483, 1.9863769997378293]}}, {"type": "Feature", "properties": {"norad_id": 66911, "name": "1998-067XX", "group": "last-30-days", "lat": 2.5373584580633084, "lon": 171.31083382996974, "alt_km": 418.37184351242286, "timestamp": "2025-12-07T07:31:35.087662+00:00", "meta": {"OBJECT_NAME": "1998-067XX", "OBJECT_ID": "1998-067XX", "EPOCH": "2025-12-06T22:14:02.509152", "MEAN_MOTION": 15.50921454, "ECCENTRICITY": 0.00060774, "INCLINATION": 51.6294, "RA_OF_ASC_NODE": 171.2209, "ARG_OF_PERICENTER": 181.4841, "MEAN_ANOMALY": 178.6131, "EPHEMERIS_TYPE": 0, "CLASSIFICATION_TYPE": "U", "NORAD_CAT_ID": 66911, "ELEMENT_SET_NO": 999, "REV_AT_EPOCH": 70, "BSTAR": 0.0013962255, "MEAN_MOTION_DOT": 0.00082787, "MEAN_MOTION_DDOT": 0}, "tle": {"line1": "1 66911U 98067XX  25340.92641793  .00082787  00000+0  13962-2 0  9992", "line2": "2 66911  51.6294 171.2209 0006077 181.4841 178.6131 15.50921454   701"}}, "geometry": {"type": "Point", "coordinates": [171.31083382996974, 2.5373584580633084]}}]}